API VERSION: 1.2
API SOURCE: NASA/JPL Horizons API



*******************************************************************************
Ephemeris / API_USER Sat Jul 11 19:37:07 2026 Pasadena, USA      / Horizons    
*******************************************************************************
Target body name: 2060 Chiron (1977 UB)           {source: JPL#171}
Center body name: Earth (399)                     {source: DE441}
Center-site name: GEOCENTRIC
*******************************************************************************
Start time      : A.D. 2065-Jan-01 00:00:00.0000 UT      
Stop  time      : A.D. 2070-Jan-01 00:00:00.0000 UT      
Step-size       : 2880 minutes
*******************************************************************************
Target pole/equ : undefined
Target radii    : 83. km                                                       
Center geodetic : 0.0, 0.0, -6378.137             {E-lon(deg),Lat(deg),Alt(km)}
Center cylindric: 0.0, 0.0, 0.0                   {E-lon(deg),Dxy(km),Dz(km)}
Center pole/equ : ITRF93                          {East-longitude positive}
Center radii    : 6378.137, 6378.137, 6356.752 km {Equator_a, b, pole_c}       
Target primary  : Sun
Vis. interferer : MOON (R_eq= 1737.400) km        {source: DE441}
Rel. light bend : Sun                             {source: DE441}
Rel. lght bnd GM: 1.3271E+11 km^3/s^2                                          
Small-body perts: Yes                             {source: SB441-N16}
Atmos refraction: NO (AIRLESS)
RA format       : DEG
Time format     : CAL 
Calendar mode   : Mixed Julian/Gregorian
EOP file        : eop.260710.p261006                                           
EOP coverage    : DATA-BASED 1962-JAN-20 TO 2026-JUL-10. PREDICTS-> 2026-OCT-05
Units conversion: 1 au= 149597870.700 km, c= 299792.458 km/s, 1 day= 86400.0 s 
Table cut-offs 1: Elevation (-90.0deg=NO ),Airmass (>38.000=NO), Daylight (NO )
Table cut-offs 2: Solar elongation (  0.0,180.0=NO ),Local Hour Angle( 0.0=NO )
Table cut-offs 3: RA/DEC angular rate (     0.0=NO )                           
*******************************************************************************
Initial IAU76/J2000 heliocentric ecliptic osculating elements (au, days, deg.):
  EPOCH=  2457916.5 ! 2017-Jun-12.00 (TDB)         Residual RMS= .19933        
   EC= .3824171374703196   QR= 8.427522999110739   TP= 2450143.7110841358      
   OM= 209.2011323125998   W=  339.6529896907077   IN= 6.94959060447848        
  Equivalent ICRF heliocentric cartesian coordinates (au, au/d):
   X= 1.843374627977423E+01  Y=-1.877818593473934E+00  Z= 5.548833989583914E-01
  VX= 7.316266023833624E-04 VY= 2.960187278972600E-03 VZ= 9.710586201315230E-04
Asteroid physical parameters (km, seconds, rotational period in hours):        
   GM= n.a.                RAD= 83.                ROTPER= 5.918               
   H= 5.54                 G= .150                 B-V= .704                   
                           ALBEDO= .150            STYP= Cb                    
*******************************************************************************
 Date__(UT)__HR:MN        ObsEcLon    ObsEcLat
**********************************************
$$SOE
 2065-Jan-01 00:00     342.7211591   4.7640717
 2065-Jan-03 00:00     342.7957389   4.7544773
 2065-Jan-05 00:00     342.8734531   4.7450681
 2065-Jan-07 00:00     342.9541692   4.7358510
 2065-Jan-09 00:00     343.0377435   4.7268325
 2065-Jan-11 00:00     343.1240773   4.7180182
 2065-Jan-13 00:00     343.2131101   4.7094133
 2065-Jan-15 00:00     343.3047859   4.7010226
 2065-Jan-17 00:00     343.3990349   4.6928509
 2065-Jan-19 00:00     343.4957654   4.6849026
 2065-Jan-21 00:00     343.5948592   4.6771819
 2065-Jan-23 00:00     343.6961780   4.6696934
 2065-Jan-25 00:00     343.7995990   4.6624412
 2065-Jan-27 00:00     343.9050540   4.6554299
 2065-Jan-29 00:00     344.0125155   4.6486637
 2065-Jan-31 00:00     344.1219326   4.6421469
 2065-Feb-02 00:00     344.2331885   4.6358830
 2065-Feb-04 00:00     344.3461217   4.6298750
 2065-Feb-06 00:00     344.4605830   4.6241253
 2065-Feb-08 00:00     344.5764679   4.6186357
 2065-Feb-10 00:00     344.6937017   4.6134078
 2065-Feb-12 00:00     344.8122095   4.6084429
 2065-Feb-14 00:00     344.9318989   4.6037421
 2065-Feb-16 00:00     345.0526560   4.5993065
 2065-Feb-18 00:00     345.1743444   4.5951371
 2065-Feb-20 00:00     345.2968161   4.5912350
 2065-Feb-22 00:00     345.4199487   4.5876014
 2065-Feb-24 00:00     345.5436847   4.5842376
 2065-Feb-26 00:00     345.6679953   4.5811452
 2065-Feb-28 00:00     345.7927997   4.5783255
 2065-Mar-02 00:00     345.9179495   4.5757796
 2065-Mar-04 00:00     346.0432782   4.5735071
 2065-Mar-06 00:00     346.1686507   4.5715033
 2065-Mar-08 00:00     346.2939786   4.5697616
 2065-Mar-10 00:00     346.4191951   4.5682847
 2065-Mar-12 00:00     346.5442192   4.5670762
 2065-Mar-14 00:00     346.6689485   4.5661354
 2065-Mar-16 00:00     346.7932619   4.5654599
 2065-Mar-18 00:00     346.9170224   4.5650476
 2065-Mar-20 00:00     347.0400916   4.5648965
 2065-Mar-22 00:00     347.1623665   4.5650050
 2065-Mar-24 00:00     347.2838106   4.5653717
 2065-Mar-26 00:00     347.4043995   4.5659951
 2065-Mar-28 00:00     347.5240337   4.5668734
 2065-Mar-30 00:00     347.6425544   4.5680043
 2065-Apr-01 00:00     347.7598140   4.5693850
 2065-Apr-03 00:00     347.8757081   4.5710122
 2065-Apr-05 00:00     347.9901645   4.5728826
 2065-Apr-07 00:00     348.1031197   4.5749922
 2065-Apr-09 00:00     348.2144989   4.5773374
 2065-Apr-11 00:00     348.3242059   4.5799141
 2065-Apr-13 00:00     348.4321262   4.5827184
 2065-Apr-15 00:00     348.5381357   4.5857463
 2065-Apr-17 00:00     348.6421209   4.5889940
 2065-Apr-19 00:00     348.7440114   4.5924574
 2065-Apr-21 00:00     348.8437959   4.5961329
 2065-Apr-23 00:00     348.9414563   4.6000164
 2065-Apr-25 00:00     349.0368859   4.6041037
 2065-Apr-27 00:00     349.1299320   4.6083899
 2065-Apr-29 00:00     349.2204780   4.6128696
 2065-May-01 00:00     349.3084557   4.6175370
 2065-May-03 00:00     349.3938203   4.6223861
 2065-May-05 00:00     349.4765262   4.6274106
 2065-May-07 00:00     349.5565122   4.6326042
 2065-May-09 00:00     349.6336959   4.6379605
 2065-May-11 00:00     349.7079803   4.6434728
 2065-May-13 00:00     349.7792677   4.6491347
 2065-May-15 00:00     349.8474841   4.6549397
 2065-May-17 00:00     349.9126038   4.6608811
 2065-May-19 00:00     349.9746457   4.6669526
 2065-May-21 00:00     350.0336014   4.6731472
 2065-May-23 00:00     350.0893736   4.6794580
 2065-May-25 00:00     350.1418370   4.6858771
 2065-May-27 00:00     350.1909207   4.6923962
 2065-May-29 00:00     350.2366024   4.6990068
 2065-May-31 00:00     350.2788738   4.7057001
 2065-Jun-02 00:00     350.3177189   4.7124670
 2065-Jun-04 00:00     350.3531032   4.7192985
 2065-Jun-06 00:00     350.3849737   4.7261853
 2065-Jun-08 00:00     350.4132674   4.7331182
 2065-Jun-10 00:00     350.4379320   4.7400881
 2065-Jun-12 00:00     350.4589511   4.7470856
 2065-Jun-14 00:00     350.4763581   4.7541018
 2065-Jun-16 00:00     350.4902097   4.7611272
 2065-Jun-18 00:00     350.5005183   4.7681525
 2065-Jun-20 00:00     350.5072183   4.7751679
 2065-Jun-22 00:00     350.5102381   4.7821629
 2065-Jun-24 00:00     350.5095699   4.7891270
 2065-Jun-26 00:00     350.5052505   4.7960489
 2065-Jun-28 00:00     350.4973221   4.8029177
 2065-Jun-30 00:00     350.4858141   4.8097222
 2065-Jul-02 00:00     350.4707377   4.8164513
 2065-Jul-04 00:00     350.4520881   4.8230939
 2065-Jul-06 00:00     350.4298570   4.8296390
 2065-Jul-08 00:00     350.4040588   4.8360758
 2065-Jul-10 00:00     350.3747550   4.8423938
 2065-Jul-12 00:00     350.3420504   4.8485826
 2065-Jul-14 00:00     350.3060490   4.8546317
 2065-Jul-16 00:00     350.2667973   4.8605307
 2065-Jul-18 00:00     350.2242854   4.8662690
 2065-Jul-20 00:00     350.1785192   4.8718356
 2065-Jul-22 00:00     350.1295685   4.8772194
 2065-Jul-24 00:00     350.0775397   4.8824094
 2065-Jul-26 00:00     350.0225364   4.8873946
 2065-Jul-28 00:00     349.9646453   4.8921644
 2065-Jul-30 00:00     349.9039364   4.8967084
 2065-Aug-01 00:00     349.8404667   4.9010168
 2065-Aug-03 00:00     349.7742959   4.9050798
 2065-Aug-05 00:00     349.7055166   4.9088886
 2065-Aug-07 00:00     349.6342755   4.9124345
 2065-Aug-09 00:00     349.5607485   4.9157095
 2065-Aug-11 00:00     349.4850825   4.9187058
 2065-Aug-13 00:00     349.4073622   4.9214159
 2065-Aug-15 00:00     349.3276420   4.9238321
 2065-Aug-17 00:00     349.2460092   4.9259472
 2065-Aug-19 00:00     349.1626069   4.9277538
 2065-Aug-21 00:00     349.0776018   4.9292453
 2065-Aug-23 00:00     348.9911492   4.9304152
 2065-Aug-25 00:00     348.9033842   4.9312579
 2065-Aug-27 00:00     348.8144250   4.9317683
 2065-Aug-29 00:00     348.7243797   4.9319422
 2065-Aug-31 00:00     348.6333636   4.9317757
 2065-Sep-02 00:00     348.5415310   4.9312663
 2065-Sep-04 00:00     348.4490905   4.9304117
 2065-Sep-06 00:00     348.3562581   4.9292108
 2065-Sep-08 00:00     348.2631922   4.9276627
 2065-Sep-10 00:00     348.1699927   4.9257668
 2065-Sep-12 00:00     348.0767555   4.9235229
 2065-Sep-14 00:00     347.9836187   4.9209312
 2065-Sep-16 00:00     347.8907611   4.9179921
 2065-Sep-18 00:00     347.7983689   4.9147068
 2065-Sep-20 00:00     347.7066088   4.9110770
 2065-Sep-22 00:00     347.6156228   4.9071053
 2065-Sep-24 00:00     347.5255358   4.9027949
 2065-Sep-26 00:00     347.4364648   4.8981498
 2065-Sep-28 00:00     347.3485377   4.8931748
 2065-Sep-30 00:00     347.2619227   4.8878755
 2065-Oct-02 00:00     347.1768350   4.8822581
 2065-Oct-04 00:00     347.0934730   4.8763296
 2065-Oct-06 00:00     347.0119529   4.8700972
 2065-Oct-08 00:00     346.9323432   4.8635683
 2065-Oct-10 00:00     346.8547344   4.8567503
 2065-Oct-12 00:00     346.7792602   4.8496512
 2065-Oct-14 00:00     346.7060767   4.8422790
